{
  "type": "FeatureCollection",
  "features": [
    {
      "type": "Feature",
      "properties": {
        "norad_id": 29807,
        "name": "FENGYUN 1C DEB",
        "group": "fengyun-1c-debris",
        "lat": 81.22086969877766,
        "lon": -102.15763406891361,
        "alt_km": 862.2522910911521,
        "timestamp": "2025-12-05T04:52:15.564313+00:00",
        "meta_object_name": "FENGYUN 1C DEB",
        "meta_object_id": "1999-025CZ",
        "meta_epoch": "2025-12-04T13:06:34.686720",
        "meta_mean_motion": 14.08645534,
        "meta_eccentricity": 0.0079958,
        "meta_inclination": 98.7547,
        "meta_ra_of_asc_node": 343.4052,
        "meta_arg_of_pericenter": 355.1647,
        "meta_mean_anomaly": 4.8742,
        "meta_ephemeris_type": 0,
        "meta_classification_type": "U",
        "meta_norad_cat_id": 29807,
        "meta_element_set_no": 999,
        "meta_rev_at_epoch": 96979,
        "meta_bstar": 0.00041382,
        "meta_mean_motion_dot": 6.9e-06,
        "meta_mean_motion_ddot": 0,
        "tle_line1": "1 29807U 99025CZ  25338.54623480  .00000690  00000+0  41382-3 0  9999",
        "tle_line2": "2 29807  98.7547 343.4052 0079958 355.1647   4.8742 14.08645534969793"
      },
      "geometry": {
        "type": "Point",
        "coordinates": [
          -102.15763406891361,
          81.22086969877766
        ]
      }
    },
    {
      "type": "Feature",
      "properties": {
        "norad_id": 29808,
        "name": "FENGYUN 1C DEB",
        "group": "fengyun-1c-debris",
        "lat": 74.67951574885453,
        "lon": -139.31560647277152,
        "alt_km": 497.99386598743604,
        "timestamp": "2025-12-05T04:52:15.564323+00:00",
        "meta_object_name": "FENGYUN 1C DEB",
        "meta_object_id": "1999-025DA",
        "meta_epoch": "2025-12-04T06:53:48.818976",
        "meta_mean_motion": 15.15697412,
        "meta_eccentricity": 0.0016488,
        "meta_inclination": 99.0151,
        "meta_ra_of_asc_node": 255.0159,
        "meta_arg_of_pericenter": 97.3212,
        "meta_mean_anomaly": 25.9126,
        "meta_ephemeris_type": 0,
        "meta_classification_type": "U",
        "meta_norad_cat_id": 29808,
        "meta_element_set_no": 999,
        "meta_rev_at_epoch": 98097,
        "meta_bstar": 0.026499,
        "meta_mean_motion_dot": 0.00538395,
        "meta_mean_motion_ddot": 0,
        "tle_line1": "1 29808U 99025DA  25338.28737059  .00538395  00000+0  26499-1 0  9997",
        "tle_line2": "2 29808  99.0151 255.0159 0016488  97.3212  25.9126 15.15697412980971"
      },
      "geometry": {
        "type": "Point",
        "coordinates": [
          -139.31560647277152,
          74.67951574885453
        ]
      }
    },
    {
      "type": "Feature",
      "properties": {
        "norad_id": 29809,
        "name": "FENGYUN 1C DEB",
        "group": "fengyun-1c-debris",
        "lat": 15.268638425284708,
        "lon": 124.84147544465264,
        "alt_km": 810.7097745354022,
        "timestamp": "2025-12-05T04:52:15.564334+00:00",
        "meta_object_name": "FENGYUN 1C DEB",
        "meta_object_id": "1999-025DB",
        "meta_epoch": "2025-12-04T08:55:03.808704",
        "meta_mean_motion": 14.46552333,
        "meta_eccentricity": 0.0116678,
        "meta_inclination": 98.8589,
        "meta_ra_of_asc_node": 301.5324,
        "meta_arg_of_pericenter": 15.0132,
        "meta_mean_anomaly": 141.7506,
        "meta_ephemeris_type": 0,
        "meta_classification_type": "U",
        "meta_norad_cat_id": 29809,
        "meta_element_set_no": 999,
        "meta_rev_at_epoch": 99346,
        "meta_bstar": 0.00069256,
        "meta_mean_motion_dot": 2.663e-05,
        "meta_mean_motion_ddot": 0,
        "tle_line1": "1 29809U 99025DB  25338.37157186  .00002663  00000+0  69256-3 0  9999",
        "tle_line2": "2 29809  98.8589 301.5324 0116678  15.0132 141.7506 14.46552333993467"
      },
      "geometry": {
        "type": "Point",
        "coordinates": [
          124.84147544465264,
          15.268638425284708
        ]
      }
    },
    {
      "type": "Feature",
      "properties": {
        "norad_id": 29810,
        "name": "FENGYUN 1C DEB",
        "group": "fengyun-1c-debris",
        "lat": -59.694906542967466,
        "lon": 31.719450963274436,
        "alt_km": 811.0985636963696,
        "timestamp": "2025-12-05T04:52:15.564343+00:00",
        "meta_object_name": "FENGYUN 1C DEB",
        "meta_object_id": "1999-025DC",
        "meta_epoch": "2025-12-04T16:15:32.721120",
        "meta_mean_motion": 14.29113055,
        "meta_eccentricity": 0.006726,
        "meta_inclination": 99.2077,
        "meta_ra_of_asc_node": 15.0521,
        "meta_arg_of_pericenter": 42.0854,
        "meta_mean_anomaly": 75.6685,
        "meta_ephemeris_type": 0,
        "meta_classification_type": "U",
        "meta_norad_cat_id": 29810,
        "meta_element_set_no": 999,
        "meta_rev_at_epoch": 98262,
        "meta_bstar": 0.00048196,
        "meta_mean_motion_dot": 1.203e-05,
        "meta_mean_motion_ddot": 0,
        "tle_line1": "1 29810U 99025DC  25338.67746205  .00001203  00000+0  48196-3 0  9999",
        "tle_line2": "2 29810  99.2077  15.0521 0067260  42.0854  75.6685 14.29113055982629"
      },
      "geometry": {
        "type": "Point",
        "coordinates": [
          31.719450963274436,
          -59.694906542967466
        ]
      }
    },
    {
      "type": "Feature",
      "properties": {
        "norad_id": 29812,
        "name": "FENGYUN 1C DEB",
        "group": "fengyun-1c-debris",
        "lat": -13.609269845264647,
        "lon": -13.37137083176678,
        "alt_km": 986.3416879339366,
        "timestamp": "2025-12-05T04:52:15.564353+00:00",
        "meta_object_name": "FENGYUN 1C DEB",
        "meta_object_id": "1999-025DE",
        "meta_epoch": "2025-11-29T11:12:47.447712",
        "meta_mean_motion": 14.01918477,
        "meta_eccentricity": 0.01440113,
        "meta_inclination": 98.3498,
        "meta_ra_of_asc_node": 163.4107,
        "meta_arg_of_pericenter": 5.1053,
        "meta_mean_anomaly": 57.4679,
        "meta_ephemeris_type": 0,
        "meta_classification_type": "U",
        "meta_norad_cat_id": 29812,
        "meta_element_set_no": 999,
        "meta_rev_at_epoch": 95986,
        "meta_bstar": 0.0011179541,
        "meta_mean_motion_dot": 1.825e-05,
        "meta_mean_motion_ddot": 0,
        "tle_line1": "1 29812U 99025DE  25333.46721583  .00001825  00000+0  11180-2 0  9997",
        "tle_line2": "2 29812  98.3498 163.4107 0144011   5.1053  57.4679 14.01918477959869"
      },
      "geometry": {
        "type": "Point",
        "coordinates": [
          -13.37137083176678,
          -13.609269845264647
        ]
      }
    },
    {
      "type": "Feature",
      "properties": {
        "norad_id": 29813,
        "name": "FENGYUN 1C DEB",
        "group": "fengyun-1c-debris",
        "lat": -18.546212213795414,
        "lon": 2.2499331924296393,
        "alt_km": 867.1382922000903,
        "timestamp": "2025-12-05T04:52:15.564362+00:00",
        "meta_object_name": "FENGYUN 1C DEB",
        "meta_object_id": "1999-025DF",
        "meta_epoch": "2025-12-04T12:39:08.954208",
        "meta_mean_motion": 14.09447815,
        "meta_eccentricity": 0.0011556,
        "meta_inclination": 98.7281,
        "meta_ra_of_asc_node": 358.6408,
        "meta_arg_of_pericenter": 246.973,
        "meta_mean_anomaly": 267.2793,
        "meta_ephemeris_type": 0,
        "meta_classification_type": "U",
        "meta_norad_cat_id": 29813,
        "meta_element_set_no": 999,
        "meta_rev_at_epoch": 97144,
        "meta_bstar": 0.00018816,
        "meta_mean_motion_dot": 2.86e-06,
        "meta_mean_motion_ddot": 0,
        "tle_line1": "1 29813U 99025DF  25338.52718697  .00000286  00000+0  18816-3 0  9996",
        "tle_line2": "2 29813  98.7281 358.6408 0011556 246.9730 267.2793 14.09447815971447"
      },
      "geometry": {
        "type": "Point",
        "coordinates": [
          2.2499331924296393,
          -18.546212213795414
        ]
      }
    },
    {
      "type": "Feature",
      "properties": {
        "norad_id": 29815,
        "name": "FENGYUN 1C DEB",
        "group": "fengyun-1c-debris",
        "lat": -67.63181850098829,
        "lon": 8.015702391320769,
        "alt_km": 774.3429846323706,
        "timestamp": "2025-12-05T04:52:15.564372+00:00",
        "meta_object_name": "FENGYUN 1C DEB",
        "meta_object_id": "1999-025DH",
        "meta_epoch": "2025-12-04T12:47:20.863968",
        "meta_mean_motion": 14.63631652,
        "meta_eccentricity": 0.0183644,
        "meta_inclination": 98.0556,
        "meta_ra_of_asc_node": 347.2306,
        "meta_arg_of_pericenter": 160.9646,
        "meta_mean_anomaly": 199.854,
        "meta_ephemeris_type": 0,
        "meta_classification_type": "U",
        "meta_norad_cat_id": 29815,
        "meta_element_set_no": 999,
        "meta_rev_at_epoch": 99735,
        "meta_bstar": 0.0010367,
        "meta_mean_motion_dot": 6.838e-05,
        "meta_mean_motion_ddot": 0,
        "tle_line1": "1 29815U 99025DH  25338.53288037  .00006838  00000+0  10367-2 0  9990",
        "tle_line2": "2 29815  98.0556 347.2306 0183644 160.9646 199.8540 14.63631652997359"
      },
      "geometry": {
        "type": "Point",
        "coordinates": [
          8.015702391320769,
          -67.63181850098829
        ]
      }
    }
  ]
}